{
  "type": "FeatureCollection",
  "features": [
    {
      "type": "Feature",
      "properties": {
        "norad_id": 30090,
        "name": "FENGYUN 1C DEB",
        "group": "fengyun-1c-debris",
        "lat": -62.20522206142783,
        "lon": -173.25042738027145,
        "alt_km": 839.1536034742458,
        "timestamp": "2025-12-20T16:47:36.560418+00:00",
        "meta_object_name": "FENGYUN 1C DEB",
        "meta_object_id": "1999-025QT",
        "meta_epoch": "2025-12-20T00:52:00.598656",
        "meta_mean_motion": 14.29041904,
        "meta_eccentricity": 0.00581809,
        "meta_inclination": 99.4091,
        "meta_ra_of_asc_node": 167.699,
        "meta_arg_of_pericenter": 91.089,
        "meta_mean_anomaly": 33.464,
        "meta_ephemeris_type": 0,
        "meta_classification_type": "U",
        "meta_norad_cat_id": 30090,
        "meta_element_set_no": 999,
        "meta_rev_at_epoch": 98374,
        "meta_bstar": 0.00024206148,
        "meta_mean_motion_dot": 5.74e-06,
        "meta_mean_motion_ddot": 0,
        "tle_line1": "1 30090U 99025QT  25354.03611804  .00000574  00000+0  24206-3 0  9991",
        "tle_line2": "2 30090  99.4091 167.6990 0058180  91.0890  33.4640 14.29041904983748"
      },
      "geometry": {
        "type": "Point",
        "coordinates": [
          -173.25042738027145,
          -62.20522206142783
        ]
      }
    },
    {
      "type": "Feature",
      "properties": {
        "norad_id": 30092,
        "name": "FENGYUN 1C DEB",
        "group": "fengyun-1c-debris",
        "lat": -4.700137285678981,
        "lon": -6.462097491127699,
        "alt_km": 720.7555564709528,
        "timestamp": "2025-12-20T16:47:36.560429+00:00",
        "meta_object_name": "FENGYUN 1C DEB",
        "meta_object_id": "1999-025QV",
        "meta_epoch": "2025-12-20T06:45:02.979072",
        "meta_mean_motion": 14.39163535,
        "meta_eccentricity": 0.0082719,
        "meta_inclination": 98.923,
        "meta_ra_of_asc_node": 173.8428,
        "meta_arg_of_pericenter": 227.9944,
        "meta_mean_anomaly": 310.5569,
        "meta_ephemeris_type": 0,
        "meta_classification_type": "U",
        "meta_norad_cat_id": 30092,
        "meta_element_set_no": 999,
        "meta_rev_at_epoch": 98857,
        "meta_bstar": 0.00040544,
        "meta_mean_motion_dot": 1.257e-05,
        "meta_mean_motion_ddot": 0,
        "tle_line1": "1 30092U 99025QV  25354.28128448  .00001257  00000+0  40544-3 0  9999",
        "tle_line2": "2 30092  98.9230 173.8428 0082719 227.9944 310.5569 14.39163535988570"
      },
      "geometry": {
        "type": "Point",
        "coordinates": [
          -6.462097491127699,
          -4.700137285678981
        ]
      }
    },
    {
      "type": "Feature",
      "properties": {
        "norad_id": 30093,
        "name": "FENGYUN 1C DEB",
        "group": "fengyun-1c-debris",
        "lat": 10.961570309212744,
        "lon": 51.33576184318089,
        "alt_km": 788.2334782550379,
        "timestamp": "2025-12-20T16:47:36.560439+00:00",
        "meta_object_name": "FENGYUN 1C DEB",
        "meta_object_id": "1999-025QW",
        "meta_epoch": "2025-12-20T10:12:15.729120",
        "meta_mean_motion": 14.43732102,
        "meta_eccentricity": 0.0069684,
        "meta_inclination": 98.8677,
        "meta_ra_of_asc_node": 229.3171,
        "meta_arg_of_pericenter": 314.7582,
        "meta_mean_anomaly": 228.3691,
        "meta_ephemeris_type": 0,
        "meta_classification_type": "U",
        "meta_norad_cat_id": 30093,
        "meta_element_set_no": 999,
        "meta_rev_at_epoch": 98914,
        "meta_bstar": 0.00061976,
        "meta_mean_motion_dot": 2.12e-05,
        "meta_mean_motion_ddot": 0,
        "tle_line1": "1 30093U 99025QW  25354.42518205  .00002120  00000+0  61976-3 0  9992",
        "tle_line2": "2 30093  98.8677 229.3171 0069684 314.7582 228.3691 14.43732102989149"
      },
      "geometry": {
        "type": "Point",
        "coordinates": [
          51.33576184318089,
          10.961570309212744
        ]
      }
    },
    {
      "type": "Feature",
      "properties": {
        "norad_id": 30095,
        "name": "FENGYUN 1C DEB",
        "group": "fengyun-1c-debris",
        "lat": -52.01081875781446,
        "lon": -70.96395268483991,
        "alt_km": 513.9910786178125,
        "timestamp": "2025-12-20T16:47:36.560450+00:00",
        "meta_object_name": "FENGYUN 1C DEB",
        "meta_object_id": "1999-025QY",
        "meta_epoch": "2025-12-20T05:41:05.174016",
        "meta_mean_motion": 14.82249605,
        "meta_eccentricity": 0.0164454,
        "meta_inclination": 99.2213,
        "meta_ra_of_asc_node": 276.497,
        "meta_arg_of_pericenter": 308.9061,
        "meta_mean_anomaly": 49.7579,
        "meta_ephemeris_type": 0,
        "meta_classification_type": "U",
        "meta_norad_cat_id": 30095,
        "meta_element_set_no": 999,
        "meta_rev_at_epoch": 99446,
        "meta_bstar": 0.0014879,
        "meta_mean_motion_dot": 0.0001499,
        "meta_mean_motion_ddot": 0,
        "tle_line1": "1 30095U 99025QY  25354.23686544  .00014990  00000+0  14879-2 0  9992",
        "tle_line2": "2 30095  99.2213 276.4970 0164454 308.9061  49.7579 14.82249605994465"
      },
      "geometry": {
        "type": "Point",
        "coordinates": [
          -70.96395268483991,
          -52.01081875781446
        ]
      }
    },
    {
      "type": "Feature",
      "properties": {
        "norad_id": 30096,
        "name": "FENGYUN 1C DEB",
        "group": "fengyun-1c-debris",
        "lat": -45.291299449671065,
        "lon": 83.7439880603034,
        "alt_km": 806.8137093121268,
        "timestamp": "2025-12-20T16:47:36.560460+00:00",
        "meta_object_name": "FENGYUN 1C DEB",
        "meta_object_id": "1999-025QZ",
        "meta_epoch": "2025-12-20T05:16:09.177888",
        "meta_mean_motion": 14.31703747,
        "meta_eccentricity": 0.0079469,
        "meta_inclination": 99.1472,
        "meta_ra_of_asc_node": 73.8706,
        "meta_arg_of_pericenter": 210.6698,
        "meta_mean_anomaly": 148.9826,
        "meta_ephemeris_type": 0,
        "meta_classification_type": "U",
        "meta_norad_cat_id": 30096,
        "meta_element_set_no": 999,
        "meta_rev_at_epoch": 98653,
        "meta_bstar": 0.00023934,
        "meta_mean_motion_dot": 6.12e-06,
        "meta_mean_motion_ddot": 0,
        "tle_line1": "1 30096U 99025QZ  25354.21955067  .00000612  00000+0  23934-3 0  9999",
        "tle_line2": "2 30096  99.1472  73.8706 0079469 210.6698 148.9826 14.31703747986536"
      },
      "geometry": {
        "type": "Point",
        "coordinates": [
          83.7439880603034,
          -45.291299449671065
        ]
      }
    },
    {
      "type": "Feature",
      "properties": {
        "norad_id": 30099,
        "name": "FENGYUN 1C DEB",
        "group": "fengyun-1c-debris",
        "lat": 29.468031011224724,
        "lon": 61.9342218802896,
        "alt_km": 847.0811242208583,
        "timestamp": "2025-12-20T16:47:36.560471+00:00",
        "meta_object_name": "FENGYUN 1C DEB",
        "meta_object_id": "1999-025RC",
        "meta_epoch": "2025-12-20T04:56:06.204768",
        "meta_mean_motion": 14.25947087,
        "meta_eccentricity": 0.00614209,
        "meta_inclination": 98.5399,
        "meta_ra_of_asc_node": 66.3231,
        "meta_arg_of_pericenter": 222.6586,
        "meta_mean_anomaly": 152.1514,
        "meta_ephemeris_type": 0,
        "meta_classification_type": "U",
        "meta_norad_cat_id": 30099,
        "meta_element_set_no": 999,
        "meta_rev_at_epoch": 98296,
        "meta_bstar": 0.00021836031,
        "meta_mean_motion_dot": 4.88e-06,
        "meta_mean_motion_ddot": 0,
        "tle_line1": "1 30099U 99025RC  25354.20562737  .00000488  00000+0  21836-3 0  9999",
        "tle_line2": "2 30099  98.5399  66.3231 0061420 222.6586 152.1514 14.25947087982961"
      },
      "geometry": {
        "type": "Point",
        "coordinates": [
          61.9342218802896,
          29.468031011224724
        ]
      }
    },
    {
      "type": "Feature",
      "properties": {
        "norad_id": 30102,
        "name": "FENGYUN 1C DEB",
        "group": "fengyun-1c-debris",
        "lat": 73.0030974096466,
        "lon": -149.08898224770766,
        "alt_km": 872.5973247580014,
        "timestamp": "2025-12-20T16:47:36.560481+00:00",
        "meta_object_name": "FENGYUN 1C DEB",
        "meta_object_id": "1999-025RF",
        "meta_epoch": "2025-12-20T11:57:36.417024",
        "meta_mean_motion": 14.22141262,
        "meta_eccentricity": 0.0141251,
        "meta_inclination": 98.3789,
        "meta_ra_of_asc_node": 1.8925,
        "meta_arg_of_pericenter": 337.5356,
        "meta_mean_anomaly": 175.5167,
        "meta_ephemeris_type": 0,
        "meta_classification_type": "U",
        "meta_norad_cat_id": 30102,
        "meta_element_set_no": 999,
        "meta_rev_at_epoch": 98068,
        "meta_bstar": 0.00023006,
        "meta_mean_motion_dot": 5.22e-06,
        "meta_mean_motion_ddot": 0,
        "tle_line1": "1 30102U 99025RF  25354.49833816  .00000522  00000+0  23006-3 0  9994",
        "tle_line2": "2 30102  98.3789   1.8925 0141251 337.5356 175.5167 14.22141262980681"
      },
      "geometry": {
        "type": "Point",
        "coordinates": [
          -149.08898224770766,
          73.0030974096466
        ]
      }
    }
  ]
}